154P/Brewington,e,17.6290,343.0113,47.8530,4.803943,0.0936068,0.67506593,221.3670,05/26.0/2020,2000,g  2.5,12.0
# From MPC118098
155P/Shoemaker,e,6.3959,97.1979,14.6594,6.586637,0.0583054,0.72644582,11.2529,05/26.0/2020,2000,g 10.0,4.8
# From MPC105242
156P/Russell-LINEAR,e,17.2624,35.3789,0.4027,3.461002,0.1530739,0.61481707,333.0821,05/26.0/2020,2000,g 15.5,2.0
# From MPC104795
157P/Tritton,e,12.9441,287.9208,156.1735,3.492389,0.1510151,0.58297410,236.1935,05/26.0/2020,2000,g 10.0,4.0
# From MPEC 2016-K18
158P/Kowal-LINEAR,e,7.9271,135.8476,196.9337,4.863310,0.0918980,0.01593887,303.3908,05/26.0/2020,2000,g  9.0,4.0
# From MPEC 2020-HN5
159P/LONEOS,e,23.4609,55.0084,4.6355,5.857024,0.0695326,0.38144169,51.1028,05/26.0/2020,2000,g 10.0,4.0
# From MPEC 2019-TG9
160P/LINEAR,e,15.6157,333.3669,12.6553,3.771906,0.1345435,0.52613202,23.6401,05/26.0/2020,2000,g 15.5,2.0
# From MPC 75721
161P/Hartley-IRAS,e,95.7369,1.4580,46.9170,7.727340,0.0458838,0.83451261,250.8842,05/26.0/2020,2000,g  8.5,6.0
# From MPEC 2020-HN5
162P/Siding Spring,e,27.5546,30.9233,357.1136,3.091306,0.1813390,0.58297015,324.4932,05/26.0/2020,2000,g 12.0,4.0
# From MPEC 2020-HN5
163P/NEAT,e,12.7079,102.0920,349.6718,3.769904,0.1346507,0.45186624,39.6998,05/26.0/2020,2000,g 14.5,4.0
# From MPC106349
164P/Christensen,e,16.2533,88.3055,325.8615,3.658364,0.1408555,0.53965022,102.2235,05/26.0/2020,2000,g 11.0,4.0
# From MPC 75721
165P/LINEAR,e,15.8994,0.7510,126.2313,17.90410,0.0130099,0.61476348,95.1214,05/26.0/2020,2000,g 11.5,2.0
# From MPC 75722
166P/NEAT,e,15.3613,64.5041,321.4570,13.83302,0.0191570,0.38199621,126.3577,05/26.0/2020,2000,g  5.5,4.0
# From MPC 75722
167P/CINEOS,e,19.1214,295.6532,344.1557,16.18577,0.0151358,0.27306321,105.3531,05/26.0/2020,2000,g  9.5,2.0
# From MPC102101
168P/Hergenrother,e,21.6126,355.4637,14.9913,3.581897,0.1453899,0.62066788,42.8659,05/26.0/2020,2000,g 15.5,4.0
# From MPEC 2015-M77
169P/NEAT,e,11.2956,176.0886,218.0692,2.601446,0.2348994,0.76795514,177.9594,05/26.0/2020,2000,g  9.0,4.0
# From MPC 89012
170P/Christensen,e,10.1250,142.9206,225.6450,4.198225,0.1145791,0.30339610,238.4529,05/26.0/2020,2000,g 12.0,4.0
# From MPC102102
171P/Spahr,e,21.9336,101.6972,347.1205,3.556617,0.1469428,0.50167837,73.2373,05/26.0/2020,2000,g 13.5,4.0
# From MPEC 2019-VB6
172P/Yeung,e,11.2331,30.8968,209.3717,4.210472,0.1140796,0.20616658,133.3796,05/26.0/2020,2000,g 13.0,4.0
# From MPEC 2020-HN5
173P/Mueller,e,16.4973,100.4007,29.3590,5.700678,0.0724126,0.26051639,318.6445,05/26.0/2020,2000,g  7.5,4.0
# From MPC 92985
174P/Echeclus,e,4.3431,173.2642,162.9108,10.70290,0.0281483,0.45705328,52.3523,05/26.0/2020,2000,g  9.4,2.0
# From MPC114608
175P/Hergenrother,e,6.0776,123.5284,56.2435,3.429178,0.1552098,0.43233101,36.9541,05/26.0/2020,2000,g 14.0,4.0
# From MPC 89015
176P/LINEAR,e,0.2348,345.8873,35.1417,3.193161,0.1727321,0.19296160,202.4518,05/26.0/2020,2000,g 15.1,2.0
# From MPC 75723
177P/Barnard,e,31.3357,272.3553,60.1566,24.37842,0.0081883,0.95510437,41.0912,05/26.0/2020,2000,g 15.0,4.0
# From MPC105242
178P/Hug-Bell,e,11.0897,102.8743,297.7846,3.630088,0.1425044,0.48175558,352.6456,05/26.0/2020,2000,g 13.5,4.0
# From MPC 75723
179P/Jedicke,e,19.8988,115.5256,296.4979,5.943109,0.0680273,0.30613606,310.2341,05/26.0/2020,2000,g  2.5,8.0
# From MPC100284
180P/NEAT,e,16.8683,84.5565,94.8961,3.861070,0.1299100,0.35336671,211.5393,05/26.0/2020,2000,g 11.0,4.0
# From MPC 89012
181P/Shoemaker-Levy,e,17.4856,35.4115,336.2541,3.870916,0.1294146,0.70035231,283.2701,05/26.0/2020,2000,g 11.5,4.0
# From MPEC 2014-J10
182P/LONEOS,e,16.2358,72.7262,53.8213,2.956400,0.1938918,0.66157163,220.9777,05/26.0/2020,2000,g 18.0,4.0
# From MPC110085
183P/Korlevic-Juric,e,18.6776,5.3506,163.8430,4.518430,0.1026178,0.13972429,93.5389,05/26.0/2020,2000,g 12.5,2.0
# From MPC105242
184P/Lovas,e,4.5727,173.2625,186.4223,3.795143,0.1333097,0.55120589,339.5810,05/26.0/2020,2000,g 13.5,4.0
# From MPC109593
185P/Petriew,e,13.9973,214.0960,181.8855,3.099586,0.1806128,0.69887601,153.4348,05/26.0/2020,2000,g 15.0,4.0
# From MPC100284
186P/Garradd,e,28.5099,326.8094,283.9678,5.012446,0.0878273,0.12440774,34.0337,05/26.0/2020,2000,g  7.5,4.0
# From MPC104795
187P/LINEAR,e,13.6348,109.9237,132.2317,4.574081,0.1007508,0.15246052,74.4101,05/26.0/2020,2000,g  9.0,4.0
# From MPC106349
188P/LINEAR-Mueller,e,10.5193,358.9561,26.5935,4.376448,0.1076518,0.41515556,128.5542,05/26.0/2020,2000,g 11.5,4.0
# From MPC106349
189P/NEAT,e,20.0743,281.7412,16.2511,2.947289,0.1947915,0.58871402,199.3677,05/26.0/2020,2000,g 19.0,4.0
# From MPC 75724
190P/Mueller,e,2.1741,335.5747,50.2839,4.235979,0.1130507,0.52072192,170.6681,05/26.0/2020,2000,g 13.0,4.0
# From MPC 92277
191P/McNaught,e,8.8441,98.2408,283.9097,3.639508,0.1419515,0.38659811,317.7274,05/26.0/2020,2000,g 13.0,4.0
# From MPC 75724
192P/Shoemaker-Levy,e,24.5329,51.6455,312.9011,6.478786,0.0597673,0.77274705,272.7357,05/26.0/2020,2000,g 15.0,4.0
# From MPC 92277
193P/LINEAR-NEAT,e,10.6868,335.1919,8.2548,3.575608,0.1457737,0.39402375,293.4186,05/26.0/2020,2000,g 14.0,4.0
# From MPC 98566
194P/LINEAR,e,11.1779,351.6021,130.7562,3.986518,0.1238265,0.57770905,191.4286,05/26.0/2020,2000,g 16.0,4.0
# From MPC 75724
195P/Hill,e,36.3412,243.0985,249.4815,6.498128,0.0595007,0.31328359,247.4806,05/26.0/2020,2000,g  8.5,4.0
# From MPC 92985
196P/Tichy,e,19.3015,24.2068,12.3198,3.797716,0.1331743,0.42863238,241.8342,05/26.0/2020,2000,g 13.5,4.0
# From MPC 94676
197P/LINEAR,e,25.5491,66.3944,188.7341,2.867251,0.2030044,0.62992688,172.1667,05/26.0/2020,2000,g 16.5,2.0
# From NK 1596
198P/ODAS,e,1.3386,358.2503,69.2622,3.600638,0.1442564,0.44310989,76.3422,05/26.0/2020,2000,g  9.0,4.0
# From MPC 75725
199P/Shoemaker,e,24.9356,92.3998,191.5691,5.898573,0.0687992,0.50607377,279.6075,05/26.0/2020,2000,g 10.0,4.0
# From MPC118098
200P/Larsen,e,12.1044,234.8037,134.0044,4.937132,0.0898446,0.33214363,27.1619,05/26.0/2020,2000,g  9.0,4.0
# From MPC 93588
201P/LONEOS,e,5.7363,19.9352,41.2794,3.360406,0.1599987,0.63768156,301.5338,05/26.0/2020,2000,g 14.0,4.0
# From MPC103849
202P/Scotti,e,2.0274,182.1648,274.8587,3.987222,0.1237937,0.28687672,181.8400,05/26.0/2020,2000,g 13.5,4.0
# From MPEC 2019-TG9
203P/Korlevic,e,2.9734,290.3488,154.8679,4.671056,0.0976296,0.31498226,8.0062,05/26.0/2020,2000,g 14.5,2.0
# From MPC 98566
204P/LINEAR-NEAT,e,6.6385,108.8412,354.9233,3.628831,0.1425785,0.48160003,230.7464,05/26.0/2020,2000,g 14.0,4.0
# From MPC 98566
205P/Giacobini,e,15.3008,179.5993,154.1836,3.543028,0.1477890,0.56780888,271.6950,05/26.0/2020,2000,g 13.0,4.0
# From MPC 75725
206P/Barnard-Boattini,e,33.6308,202.3703,189.4347,3.488556,0.1512640,0.55144455,317.2734,05/26.0/2020,2000,g 19.0,4.0
# From MPC 75725
207P/NEAT,e,10.1503,199.6129,271.9429,3.865069,0.1297085,0.76012366,185.0315,05/26.0/2020,2000,g 16.0,4.0
# From MPC101100
208P/McMillan,e,4.4089,36.3677,310.3863,4.047387,0.1210436,0.37324837,172.2982,05/26.0/2020,2000,g 12.5,4.0
# From MPC 90771
209P/LINEAR,e,21.2582,62.7665,152.4859,2.960444,0.1934946,0.67324562,67.3784,05/26.0/2020,2000,g 17.0,2.0
# From MPC105242
210P/Christensen,e,10.2619,93.8354,345.9087,3.165873,0.1749701,0.83322438,8.4120,05/26.0/2020,2000,g 13.5,4.0
# From MPC 96868
211P/Hill,e,18.9215,117.1386,4.1338,3.548939,0.1474199,0.34242175,232.9104,05/26.0/2020,2000,g 12.5,4.0
# From MPC104795
212P/NEAT,e,22.6237,98.6829,14.2668,3.881788,0.1288713,0.58906403,174.5207,05/26.0/2020,2000,g 17.0,2.0
# From MPC114608
213P/Van Ness,e,10.3822,311.3001,5.6001,3.348270,0.1608694,0.40807288,156.7006,05/26.0/2020,2000,g 10.5,4.0
# From MPC 92986
214P/LINEAR,e,15.1864,348.2623,190.2882,3.615858,0.1433465,0.48601633,237.6752,05/26.0/2020,2000,g 13.0,4.0
# From MPC118098
215P/NEAT,e,10.5814,56.6839,262.0649,4.327943,0.1094666,0.16708255,20.7763,05/26.0/2020,2000,g 11.0,4.0
# From MPC100284
216P/LINEAR,e,9.0511,359.8202,151.3745,3.870179,0.1294516,0.44551760,188.6436,05/26.0/2020,2000,g 13.0,4.0
# From MPC108598
217P/LINEAR,e,12.8640,125.4757,246.8507,3.951907,0.1254567,0.68820913,131.0032,05/26.0/2020,2000,g 12.0,4.0
# From MPC105242
218P/LINEAR,e,2.7254,175.9764,59.7799,3.094269,0.1810785,0.62190130,336.3201,05/26.0/2020,2000,g 16.0,4.0
# From MPC100284
219P/LINEAR,e,11.5291,231.0009,107.3534,3.651082,0.1412771,0.35349627,168.0764,05/26.0/2020,2000,g 11.0,4.0
# From MPEC 2020-HN5
220P/McNaught,e,8.1279,150.1090,180.5532,3.115756,0.1792086,0.50184136,324.3961,05/26.0/2020,2000,g 15.0,4.0
# From MPC 93589
221P/LINEAR,e,11.4261,229.7254,40.0358,3.457911,0.1532793,0.49283651,272.4896,05/26.0/2020,2000,g 14.5,4.0
# From MPC 92277
222P/LINEAR,e,5.0947,6.7984,346.2268,2.899357,0.1996418,0.71438170,71.0564,05/26.0/2020,2000,g 20.0,4.0
# From MPEC 2020-HN5
223P/Skiff,e,27.0161,346.7765,37.8219,4.159136,0.1161982,0.41565205,56.3244,05/26.0/2020,2000,g 12.0,4.0
# From MPC 75727
224P/LINEAR-NEAT,e,13.3264,40.3630,16.8040,3.436823,0.1546922,0.40865965,227.4674,05/26.0/2020,2000,g 15.5,4.0
# From MPC 75727
225P/LINEAR,e,21.3476,14.1830,3.8681,3.651178,0.1412715,0.63757117,194.7455,05/26.0/2020,2000,g 18.0,4.0
# From MPC106349
226P/Pigott-LINEAR-Kowalski,e,44.0062,54.0054,341.0550,3.767980,0.1347539,0.52815316,183.2922,05/26.0/2020,2000,g 12.5,4.0
# From MPC102956
227P/Catalina-LINEAR,e,6.5095,49.4659,90.1079,3.571019,0.1460548,0.50544930,155.8848,05/26.0/2020,2000,g 16.5,2.0
# From MPEC 2020-HN5
228P/LINEAR,e,7.9098,30.9861,115.2960,4.173837,0.1155848,0.17681501,8.8258,05/26.0/2020,2000,g 14.5,2.0
# From MPC106349
229P/Gibbs,e,26.0846,157.8981,223.9852,3.931616,0.1264292,0.37645222,139.2485,05/26.0/2020,2000,g 13.0,4.0
# From MPC110497
230P/LINEAR,e,15.5176,107.0190,313.7180,3.446270,0.1540565,0.54925654,258.1900,05/26.0/2020,2000,g 13.0,4.0
# From MPC114608
231P/LINEAR-NEAT,e,12.3342,133.0248,42.8603,4.018282,0.1223611,0.24763670,42.3690,05/26.0/2020,2000,g 14.5,2.0
# From MPC112394
232P/Hill,e,14.6308,56.0220,53.4950,4.482827,0.1038427,0.33431194,43.1695,05/26.0/2020,2000,g 11.5,4.0
# From MPC 92986
